{
  "type": "FeatureCollection",
  "features": [
    {
      "type": "Feature",
      "properties": {
        "norad_id": 40362,
        "name": "YAOGAN-26",
        "group": "resource",
        "lat": -1.0119351437583957,
        "lon": -12.779767436591722,
        "alt_km": 447.8734170089929,
        "timestamp": "2025-12-12T09:49:08.385134+00:00",
        "meta_object_name": "YAOGAN-26",
        "meta_object_id": "2014-088A",
        "meta_epoch": "2025-12-12T05:08:34.235232",
        "meta_mean_motion": 15.39276464,
        "meta_eccentricity": 0.0006192,
        "meta_inclination": 97.0645,
        "meta_ra_of_asc_node": 346.9068,
        "meta_arg_of_pericenter": 31.6131,
        "meta_mean_anomaly": 328.5486,
        "meta_ephemeris_type": 0,
        "meta_classification_type": "U",
        "meta_norad_cat_id": 40362,
        "meta_element_set_no": 999,
        "meta_rev_at_epoch": 60886,
        "meta_bstar": 0.00080443,
        "meta_mean_motion_dot": 0.00031371,
        "meta_mean_motion_ddot": 0,
        "tle_line1": "1 40362U 14088A   25346.21428513  .00031371  00000+0  80443-3 0  9998",
        "tle_line2": "2 40362  97.0645 346.9068 0006192  31.6131 328.5486 15.39276464608868"
      },
      "geometry": {
        "type": "Point",
        "coordinates": [
          -12.779767436591722,
          -1.0119351437583957
        ]
      }
    },
    {
      "type": "Feature",
      "properties": {
        "norad_id": 40376,
        "name": "SMAP",
        "group": "resource",
        "lat": -21.724570743616397,
        "lon": -5.597357738422045,
        "alt_km": 688.0345956181272,
        "timestamp": "2025-12-12T09:49:08.385145+00:00",
        "meta_object_name": "SMAP",
        "meta_object_id": "2015-003A",
        "meta_epoch": "2025-12-12T03:21:17.569152",
        "meta_mean_motion": 14.63343868,
        "meta_eccentricity": 0.0001201,
        "meta_inclination": 98.1292,
        "meta_ra_of_asc_node": 350.8723,
        "meta_arg_of_pericenter": 89.9956,
        "meta_mean_anomaly": 270.1384,
        "meta_ephemeris_type": 0,
        "meta_classification_type": "U",
        "meta_norad_cat_id": 40376,
        "meta_element_set_no": 999,
        "meta_rev_at_epoch": 58026,
        "meta_bstar": 0.00018457,
        "meta_mean_motion_dot": 9.06e-06,
        "meta_mean_motion_ddot": 0,
        "tle_line1": "1 40376U 15003A   25346.13978668  .00000906  00000+0  18457-3 0  9999",
        "tle_line2": "2 40376  98.1292 350.8723 0001201  89.9956 270.1384 14.63343868580263"
      },
      "geometry": {
        "type": "Point",
        "coordinates": [
          -5.597357738422045,
          -21.724570743616397
        ]
      }
    },
    {
      "type": "Feature",
      "properties": {
        "norad_id": 40536,
        "name": "KOMPSAT-3A",
        "group": "resource",
        "lat": -64.82032024047841,
        "lon": -22.584827401242524,
        "alt_km": 445.04011456836815,
        "timestamp": "2025-12-12T09:49:08.385155+00:00",
        "meta_object_name": "KOMPSAT-3A",
        "meta_object_id": "2015-014A",
        "meta_epoch": "2025-12-12T03:52:57.033408",
        "meta_mean_motion": 15.43910205,
        "meta_eccentricity": 0.0004913,
        "meta_inclination": 97.6788,
        "meta_ra_of_asc_node": 320.4761,
        "meta_arg_of_pericenter": 128.7396,
        "meta_mean_anomaly": 231.4291,
        "meta_ephemeris_type": 0,
        "meta_classification_type": "U",
        "meta_norad_cat_id": 40536,
        "meta_element_set_no": 999,
        "meta_rev_at_epoch": 59286,
        "meta_bstar": 0.00058943,
        "meta_mean_motion_dot": 0.00026758,
        "meta_mean_motion_ddot": 0,
        "tle_line1": "1 40536U 15014A   25346.16177122  .00026758  00000+0  58943-3 0  9995",
        "tle_line2": "2 40536  97.6788 320.4761 0004913 128.7396 231.4291 15.43910205592863"
      },
      "geometry": {
        "type": "Point",
        "coordinates": [
          -22.584827401242524,
          -64.82032024047841
        ]
      }
    },
    {
      "type": "Feature",
      "properties": {
        "norad_id": 40697,
        "name": "SENTINEL-2A",
        "group": "resource",
        "lat": -63.88039350570183,
        "lon": -138.96277396215208,
        "alt_km": 796.9097640897635,
        "timestamp": "2025-12-12T09:49:08.385165+00:00",
        "meta_object_name": "SENTINEL-2A",
        "meta_object_id": "2015-028A",
        "meta_epoch": "2025-12-12T05:19:11.791200",
        "meta_mean_motion": 14.30813208,
        "meta_eccentricity": 0.0001087,
        "meta_inclination": 98.5686,
        "meta_ra_of_asc_node": 58.761,
        "meta_arg_of_pericenter": 89.0565,
        "meta_mean_anomaly": 271.0742,
        "meta_ephemeris_type": 0,
        "meta_classification_type": "U",
        "meta_norad_cat_id": 40697,
        "meta_element_set_no": 999,
        "meta_rev_at_epoch": 54699,
        "meta_bstar": 0.00017056,
        "meta_mean_motion_dot": 4.03e-06,
        "meta_mean_motion_ddot": 0,
        "tle_line1": "1 40697U 15028A   25346.22166425  .00000403  00000+0  17056-3 0  9998",
        "tle_line2": "2 40697  98.5686  58.7610 0001087  89.0565 271.0742 14.30813208546992"
      },
      "geometry": {
        "type": "Point",
        "coordinates": [
          -138.96277396215208,
          -63.88039350570183
        ]
      }
    },
    {
      "type": "Feature",
      "properties": {
        "norad_id": 40701,
        "name": "GAOFEN-8",
        "group": "resource",
        "lat": 15.78440108572477,
        "lon": -13.277342526276712,
        "alt_km": 444.15481528030887,
        "timestamp": "2025-12-12T09:49:08.385176+00:00",
        "meta_object_name": "GAOFEN-8",
        "meta_object_id": "2015-030A",
        "meta_epoch": "2025-12-12T04:25:35.030208",
        "meta_mean_motion": 15.38510087,
        "meta_eccentricity": 0.001158,
        "meta_inclination": 97.6913,
        "meta_ra_of_asc_node": 164.2977,
        "meta_arg_of_pericenter": 139.7657,
        "meta_mean_anomaly": 220.4446,
        "meta_ephemeris_type": 0,
        "meta_classification_type": "U",
        "meta_norad_cat_id": 40701,
        "meta_element_set_no": 999,
        "meta_rev_at_epoch": 58262,
        "meta_bstar": 0.00044852,
        "meta_mean_motion_dot": 0.00017012,
        "meta_mean_motion_ddot": 0,
        "tle_line1": "1 40701U 15030A   25346.18443322  .00017012  00000+0  44852-3 0  9994",
        "tle_line2": "2 40701  97.6913 164.2977 0011580 139.7657 220.4446 15.38510087582621"
      },
      "geometry": {
        "type": "Point",
        "coordinates": [
          -13.277342526276712,
          15.78440108572477
        ]
      }
    },
    {
      "type": "Feature",
      "properties": {
        "norad_id": 40718,
        "name": "CARBONITE 1 (CBNT-1)",
        "group": "resource",
        "lat": 18.154730642820137,
        "lon": -10.009549724064193,
        "alt_km": 611.7028161131548,
        "timestamp": "2025-12-12T09:49:08.385185+00:00",
        "meta_object_name": "CARBONITE 1 (CBNT-1)",
        "meta_object_id": "2015-032D",
        "meta_epoch": "2025-12-12T04:14:00.587616",
        "meta_mean_motion": 14.82738968,
        "meta_eccentricity": 0.0014366,
        "meta_inclination": 97.6405,
        "meta_ra_of_asc_node": 167.2452,
        "meta_arg_of_pericenter": 183.482,
        "meta_mean_anomaly": 176.6296,
        "meta_ephemeris_type": 0,
        "meta_classification_type": "U",
        "meta_norad_cat_id": 40718,
        "meta_element_set_no": 999,
        "meta_rev_at_epoch": 56162,
        "meta_bstar": 0.00044046,
        "meta_mean_motion_dot": 3.513e-05,
        "meta_mean_motion_ddot": 0,
        "tle_line1": "1 40718U 15032D   25346.17639569  .00003513  00000+0  44046-3 0  9999",
        "tle_line2": "2 40718  97.6405 167.2452 0014366 183.4820 176.6296 14.82738968561629"
      },
      "geometry": {
        "type": "Point",
        "coordinates": [
          -10.009549724064193,
          18.154730642820137
        ]
      }
    },
    {
      "type": "Feature",
      "properties": {
        "norad_id": 40878,
        "name": "YAOGAN-27",
        "group": "resource",
        "lat": 56.59250442181938,
        "lon": -39.636371825589,
        "alt_km": 1197.9989756315617,
        "timestamp": "2025-12-12T09:49:08.385196+00:00",
        "meta_object_name": "YAOGAN-27",
        "meta_object_id": "2015-040A",
        "meta_epoch": "2025-12-12T05:52:34.658976",
        "meta_mean_motion": 13.16061712,
        "meta_eccentricity": 0.0007636,
        "meta_inclination": 100.1016,
        "meta_ra_of_asc_node": 335.8869,
        "meta_arg_of_pericenter": 288.1212,
        "meta_mean_anomaly": 71.907,
        "meta_ephemeris_type": 0,
        "meta_classification_type": "U",
        "meta_norad_cat_id": 40878,
        "meta_element_set_no": 999,
        "meta_rev_at_epoch": 49307,
        "meta_bstar": 0.00080435,
        "meta_mean_motion_dot": 2.63e-06,
        "meta_mean_motion_ddot": 0,
        "tle_line1": "1 40878U 15040A   25346.24484559  .00000263  00000+0  80435-3 0  9991",
        "tle_line2": "2 40878 100.1016 335.8869 0007636 288.1212  71.9070 13.16061712493071"
      },
      "geometry": {
        "type": "Point",
        "coordinates": [
          -39.636371825589,
          56.59250442181938
        ]
      }
    }
  ]
}